CCSDS_OMM_VERS = 2.0
CREATION_DATE  = 
ORIGINATOR     = 

OBJECT_NAME    = UNKNOWN
OBJECT_ID      = 
CENTER_NAME    = EARTH
REF_FRAME      = TEME
TIME_SYSTEM    = UTC
MEAN_ELEMENT_THEORY = SGP/SGP4

EPOCH          = 2026-03-17T09:21:06.642144
MEAN_MOTION    = 13.19544690
ECCENTRICITY   = .0119592
INCLINATION    = 100.7431
RA_OF_ASC_NODE = 279.6077
ARG_OF_PERICENTER = 147.4701
MEAN_ANOMALY   = 213.3854

EPHEMERIS_TYPE = 0
CLASSIFICATION_TYPE = U
NORAD_CAT_ID   = 87771
ELEMENT_SET_NO = 999
REV_AT_EPOCH   = 54757
BSTAR          = .31015E-3
MEAN_MOTION_DOT = .82E-6
MEAN_MOTION_DDOT = 0

CCSDS_OMM_VERS = 2.0
CREATION_DATE  = 
ORIGINATOR     = 

OBJECT_NAME    = UNKNOWN
OBJECT_ID      = 
CENTER_NAME    = EARTH
REF_FRAME      = TEME
TIME_SYSTEM    = UTC
MEAN_ELEMENT_THEORY = SGP/SGP4

EPOCH          = 2026-03-17T10:48:40.361760
MEAN_MOTION    = 13.00999493
ECCENTRICITY   = .0060912
INCLINATION    = 102.3742
RA_OF_ASC_NODE = 325.6807
ARG_OF_PERICENTER = 20.9886
MEAN_ANOMALY   = 339.3691

EPHEMERIS_TYPE = 0
CLASSIFICATION_TYPE = U
NORAD_CAT_ID   = 87782
ELEMENT_SET_NO = 999
REV_AT_EPOCH   = 58030
BSTAR          = .10669E-1
MEAN_MOTION_DOT = .3232E-4
MEAN_MOTION_DDOT = 0

CCSDS_OMM_VERS = 2.0
CREATION_DATE  = 
ORIGINATOR     = 

OBJECT_NAME    = UNKNOWN
OBJECT_ID      = 
CENTER_NAME    = EARTH
REF_FRAME      = TEME
TIME_SYSTEM    = UTC
MEAN_ELEMENT_THEORY = SGP/SGP4

EPOCH          = 2026-03-08T13:08:37.169088
MEAN_MOTION    = 13.16964650
ECCENTRICITY   = .0246927
INCLINATION    = 99.6563
RA_OF_ASC_NODE = 179.4810
ARG_OF_PERICENTER = 164.5334
MEAN_ANOMALY   = 196.3503

EPHEMERIS_TYPE = 0
CLASSIFICATION_TYPE = U
NORAD_CAT_ID   = 87843
ELEMENT_SET_NO = 999
REV_AT_EPOCH   = 57545
BSTAR          = .51608E-2
MEAN_MOTION_DOT = .2283E-4
MEAN_MOTION_DDOT = 0

CCSDS_OMM_VERS = 2.0
CREATION_DATE  = 
ORIGINATOR     = 

OBJECT_NAME    = UNKNOWN
OBJECT_ID      = 
CENTER_NAME    = EARTH
REF_FRAME      = TEME
TIME_SYSTEM    = UTC
MEAN_ELEMENT_THEORY = SGP/SGP4

EPOCH          = 2026-03-16T01:22:57.806400
MEAN_MOTION    = 12.89331130
ECCENTRICITY   = .0579971
INCLINATION    = 98.8670
RA_OF_ASC_NODE = 19.3118
ARG_OF_PERICENTER = 38.8045
MEAN_ANOMALY   = 325.3260

EPHEMERIS_TYPE = 0
CLASSIFICATION_TYPE = U
NORAD_CAT_ID   = 87845
ELEMENT_SET_NO = 999
REV_AT_EPOCH   = 57723
BSTAR          = .6447E-2
MEAN_MOTION_DOT = .349E-4
MEAN_MOTION_DDOT = 0

CCSDS_OMM_VERS = 2.0
CREATION_DATE  = 
ORIGINATOR     = 

OBJECT_NAME    = UNKNOWN
OBJECT_ID      = 
CENTER_NAME    = EARTH
REF_FRAME      = TEME
TIME_SYSTEM    = UTC
MEAN_ELEMENT_THEORY = SGP/SGP4

EPOCH          = 2026-03-17T14:45:02.348928
MEAN_MOTION    = 14.41562618
ECCENTRICITY   = .0033611
INCLINATION    = 99.1613
RA_OF_ASC_NODE = 207.8406
ARG_OF_PERICENTER = 348.1043
MEAN_ANOMALY   = 11.9347

EPHEMERIS_TYPE = 0
CLASSIFICATION_TYPE = U
NORAD_CAT_ID   = 87878
ELEMENT_SET_NO = 999
REV_AT_EPOCH   = 62496
BSTAR          = .72957E-3
MEAN_MOTION_DOT = .2338E-4
MEAN_MOTION_DDOT = 0

CCSDS_OMM_VERS = 2.0
CREATION_DATE  = 
ORIGINATOR     = 

OBJECT_NAME    = UNKNOWN
OBJECT_ID      = 
CENTER_NAME    = EARTH
REF_FRAME      = TEME
TIME_SYSTEM    = UTC
MEAN_ELEMENT_THEORY = SGP/SGP4

EPOCH          = 2026-03-17T00:11:17.855520
MEAN_MOTION    = 14.06058330
ECCENTRICITY   = .0154469
INCLINATION    = 98.7316
RA_OF_ASC_NODE = 181.5472
ARG_OF_PERICENTER = 162.6702
MEAN_ANOMALY   = 197.9823

EPHEMERIS_TYPE = 0
CLASSIFICATION_TYPE = U
NORAD_CAT_ID   = 87884
ELEMENT_SET_NO = 999
REV_AT_EPOCH   = 63161
BSTAR          = .35768E-3
MEAN_MOTION_DOT = .612E-5
MEAN_MOTION_DDOT = 0

CCSDS_OMM_VERS = 2.0
CREATION_DATE  = 
ORIGINATOR     = 

OBJECT_NAME    = UNKNOWN
OBJECT_ID      = 
CENTER_NAME    = EARTH
REF_FRAME      = TEME
TIME_SYSTEM    = UTC
MEAN_ELEMENT_THEORY = SGP/SGP4

EPOCH          = 2026-03-17T02:42:11.810880
MEAN_MOTION    = 12.35740992
ECCENTRICITY   = .0896885
INCLINATION    = 28.6244
RA_OF_ASC_NODE = 223.4917
ARG_OF_PERICENTER = 322.2033
MEAN_ANOMALY   = 31.8668

EPHEMERIS_TYPE = 0
CLASSIFICATION_TYPE = U
NORAD_CAT_ID   = 87991
ELEMENT_SET_NO = 999
REV_AT_EPOCH   = 53467
BSTAR          = .49492E-3
MEAN_MOTION_DOT = .316E-5
MEAN_MOTION_DDOT = 0

CCSDS_OMM_VERS = 2.0
CREATION_DATE  = 
ORIGINATOR     = 

OBJECT_NAME    = UNKNOWN
OBJECT_ID      = 2025-241B
CENTER_NAME    = EARTH
REF_FRAME      = TEME
TIME_SYSTEM    = UTC
MEAN_ELEMENT_THEORY = SGP/SGP4

EPOCH          = 2026-03-18T08:22:37.520832
MEAN_MOTION    = 15.22540270
ECCENTRICITY   = .0004498
INCLINATION    = 51.6338
RA_OF_ASC_NODE = 31.6789
ARG_OF_PERICENTER = 184.8105
MEAN_ANOMALY   = 175.2830

EPHEMERIS_TYPE = 0
CLASSIFICATION_TYPE = U
NORAD_CAT_ID   = 88780
ELEMENT_SET_NO = 999
REV_AT_EPOCH   = 106
BSTAR          = .34197E-3
MEAN_MOTION_DOT = .7719E-4
MEAN_MOTION_DDOT = 0

CCSDS_OMM_VERS = 2.0
CREATION_DATE  = 
ORIGINATOR     = 

OBJECT_NAME    = UNKNOWN
OBJECT_ID      = 
CENTER_NAME    = EARTH
REF_FRAME      = TEME
TIME_SYSTEM    = UTC
MEAN_ELEMENT_THEORY = SGP/SGP4

EPOCH          = 2026-03-17T11:31:28.458336
MEAN_MOTION    = 14.46343442
ECCENTRICITY   = .0190845
INCLINATION    = 97.8423
RA_OF_ASC_NODE = 263.5791
ARG_OF_PERICENTER = 99.8560
MEAN_ANOMALY   = 262.4237

EPHEMERIS_TYPE = 0
CLASSIFICATION_TYPE = U
NORAD_CAT_ID   = 89005
ELEMENT_SET_NO = 999
REV_AT_EPOCH   = 54778
BSTAR          = .49534E-3
MEAN_MOTION_DOT = .2185E-4
MEAN_MOTION_DDOT = 0

CCSDS_OMM_VERS = 2.0
CREATION_DATE  = 
ORIGINATOR     = 

OBJECT_NAME    = UNKNOWN
OBJECT_ID      = 
CENTER_NAME    = EARTH
REF_FRAME      = TEME
TIME_SYSTEM    = UTC
MEAN_ELEMENT_THEORY = SGP/SGP4

EPOCH          = 2026-03-17T11:17:19.942080
MEAN_MOTION    = 14.95766227
ECCENTRICITY   = .002256
INCLINATION    = 98.0440
RA_OF_ASC_NODE = 343.1818
ARG_OF_PERICENTER = 14.8490
MEAN_ANOMALY   = 345.3388

EPHEMERIS_TYPE = 0
CLASSIFICATION_TYPE = U
NORAD_CAT_ID   = 89029
ELEMENT_SET_NO = 999
REV_AT_EPOCH   = 66523
BSTAR          = .37226E-3
MEAN_MOTION_DOT = .4109E-4
MEAN_MOTION_DDOT = 0

CCSDS_OMM_VERS = 2.0
CREATION_DATE  = 
ORIGINATOR     = 

OBJECT_NAME    = UNKNOWN
OBJECT_ID      = 
CENTER_NAME    = EARTH
REF_FRAME      = TEME
TIME_SYSTEM    = UTC
MEAN_ELEMENT_THEORY = SGP/SGP4

EPOCH          = 2026-03-17T01:55:39.408672
MEAN_MOTION    = 13.04035932
ECCENTRICITY   = .0146493
INCLINATION    = 100.4728
RA_OF_ASC_NODE = 14.8267
ARG_OF_PERICENTER = 257.9915
MEAN_ANOMALY   = 100.4739

EPHEMERIS_TYPE = 0
CLASSIFICATION_TYPE = U
NORAD_CAT_ID   = 89101
ELEMENT_SET_NO = 999
REV_AT_EPOCH   = 56714
BSTAR          = -.97867E-3
MEAN_MOTION_DOT = -.373E-5
MEAN_MOTION_DDOT = 0

CCSDS_OMM_VERS = 2.0
CREATION_DATE  = 
ORIGINATOR     = 

OBJECT_NAME    = UNKNOWN
OBJECT_ID      = 
CENTER_NAME    = EARTH
REF_FRAME      = TEME
TIME_SYSTEM    = UTC
MEAN_ELEMENT_THEORY = SGP/SGP4

EPOCH          = 2026-03-10T15:50:42.813600
MEAN_MOTION    = 8.87978578
ECCENTRICITY   = .2929755
INCLINATION    = 63.4375
RA_OF_ASC_NODE = 308.1692
ARG_OF_PERICENTER = 319.6350
MEAN_ANOMALY   = 21.9696

EPHEMERIS_TYPE = 0
CLASSIFICATION_TYPE = U
NORAD_CAT_ID   = 89132
ELEMENT_SET_NO = 999
REV_AT_EPOCH   = 33291
BSTAR          = .37514E-2
MEAN_MOTION_DOT = .2902E-4
MEAN_MOTION_DDOT = 0

