UNKNOWN                 
1 87771U          26076.38966021  .00000082  00000+0  31015-3 0  9998
2 87771 100.7431 279.6077 0119592 147.4701 213.3854 13.19544690547573
UNKNOWN                 
1 87782U          26076.45046715  .00003232  00000+0  10669-1 0  9997
2 87782 102.3742 325.6807 0060912  20.9886 339.3691 13.00999493580302
UNKNOWN                 
1 87843U          26067.54765242  .00002283  00000+0  51608-2 0  9992
2 87843  99.6563 179.4810 0246927 164.5334 196.3503 13.16964650575450
UNKNOWN                 
1 87845U          26075.05761350  .00003490  00000+0  64470-2 0  9997
2 87845  98.8670  19.3118 0579971  38.8045 325.3260 12.89331130577237
UNKNOWN                 
1 87878U          26076.61461052  .00002338  00000+0  72957-3 0  9992
2 87878  99.1613 207.8406 0033611 348.1043  11.9347 14.41562618624963
UNKNOWN                 
1 87884U          26076.00784555  .00000612  00000+0  35768-3 0  9990
2 87884  98.7316 181.5472 0154469 162.6702 197.9823 14.06058330631618
UNKNOWN                 
1 87991U          26076.11263670  .00000316  00000+0  49492-3 0  9991
2 87991  28.6244 223.4917 0896885 322.2033  31.8668 12.35740992534678
UNKNOWN                 
1 88780U 25241B   26077.34904538  .00007719  00000+0  34197-3 0  9993
2 88780  51.6338  31.6789 0004498 184.8105 175.2830 15.22540270  1066
UNKNOWN                 
1 89005U          26076.48019049  .00002185  00000+0  49534-3 0  9991
2 89005  97.8423 263.5791 0190845  99.8560 262.4237 14.46343442547786
UNKNOWN                 
1 89029U          26076.47036970  .00004109  00000+0  37226-3 0  9991
2 89029  98.0440 343.1818 0022560  14.8490 345.3388 14.95766227665239
UNKNOWN                 
1 89101U          26076.08031723 -.00000373  00000+0 -97867-3 0  9998
2 89101 100.4728  14.8267 0146493 257.9915 100.4739 13.04035932567143
UNKNOWN                 
1 89132U          26069.66021775  .00002902  00000+0  37514-2 0  9994
2 89132  63.4375 308.1692 2929755 319.6350  21.9696  8.87978578332916
